0 METEOR 2-9 DEB
1 38290U 82116J   13281.10524647  .00003710  00000-0  15710-2 0   385
2 38290 081.2478 206.9125 0054197 222.0137 137.6754 14.24526035246582
0 METEOR 2-9 DEB
1 38290U 82116J   13284.05525523  .00003772  00000-0  15968-2 0   390
2 38290 081.2475 203.9734 0053782 214.0691 145.7123 14.24549287247009
0 METEOR 2-9 DEB
1 38290U 82116J   13287.07545093  .00004081  00000-0  17256-2 0   407
2 38290 081.2513 200.9670 0055288 204.3011 155.6496 14.24577719247430
0 METEOR 2-9 DEB
1 38290U 82116J   13290.44672422  .00005496  00000-0  23312-2 0   411
2 38290 081.2444 197.6061 0054128 193.9765 166.0402 14.24621518247913
0 METEOR 2-9 DEB
1 38290U 82116J   13291.00862461  .00004342  00000-0  18315-2 0   414
2 38290 081.2542 197.0550 0058134 187.1469 173.0376 14.24616397247991
0 METEOR 2-9 DEB
1 38290U 82116J   13293.04538357  .00004628  00000-0  19547-2 0   420
2 38290 081.2492 195.0180 0055305 185.6883 174.4837 14.24640672248285
0 METEOR 2-9 DEB
1 38290U 82116J   13294.02862367  .00004769  00000-0  20189-2 0   431
2 38290 081.2442 194.0417 0050979 185.0381 175.0204 14.24652013248424
